60379,QIANFAN-1,2024,106.59,-1.0,+,88.98,Active,0,LEO,PRC,China,Unknown,Unknown,Unknown,1 60379U 24140A   25222.56000732  .00000130  00000+0  18273-3 0  9999,2 60379  88.9841 312.1210 0016936 206.9595 153.0677 13.50957350 50581,13.5095735,0.0016936,LEO
60380,QIANFAN-2,2024,106.59,-1.0,+,88.98,Active,0,LEO,PRC,China,Unknown,Unknown,Unknown,1 60380U 24140B   25222.58875280  .00000136  00000+0  19231-3 0  9992,2 60380  88.9827 311.9747 0013313 176.8435 183.2803 13.50963892 50644,13.50963892,0.0013313,LEO
60381,QIANFAN-3,2024,106.59,-1.0,+,88.98,Active,0,LEO,PRC,China,Unknown,Unknown,Unknown,1 60381U 24140C   25222.59694067  .00000061  00000+0  75455-4 0  9994,2 60381  88.9820 312.1155 0013969 189.7555 170.3327 13.50957756 50557,13.50957756,0.0013969,LEO
60382,QIANFAN-4,2024,106.59,-1.0,+,88.98,Active,0,LEO,PRC,China,Unknown,Unknown,Unknown,1 60382U 24140D   25222.57236152  .00000141  00000+0  19987-3 0  9996,2 60382  88.9844 311.9847 0013451 179.5427 180.5739 13.50957443 50676,13.50957443,0.0013451,LEO
60383,QIANFAN-5,2024,106.59,-1.0,+,88.98,Active,0,LEO,PRC,China,Unknown,Unknown,Unknown,1 60383U 24140E   25222.62175630  .00000139  00000+0  19735-3 0  9994,2 60383  88.9819 312.1388 0014792 201.7021 158.3505 13.50960638 50549,13.50960638,0.0014792,LEO
60384,QIANFAN-6,2024,106.59,-1.0,+,88.98,Active,0,LEO,PRC,China,Unknown,Unknown,Unknown,1 60384U 24140F   25222.56819075  .00000138  00000+0  19439-3 0  9996,2 60384  88.9845 311.8574 0013338 185.3754 174.7256 13.50957044 50730,13.50957044,0.0013338,LEO
60385,QIANFAN-7,2024,100.88,-1.0,P,88.98,Active,0,LEO,PRC,China,Unknown,Unknown,Unknown,1 60385U 24140G   25222.60855394  .00000635  00000+0  25241-3 0  9996,2 60385  88.9846 308.2964 0017512  91.1890 269.1310 14.27507327 52684,14.27507327,0.0017512,LEO
60386,QIANFAN-8,2024,106.59,-1.0,+,88.98,Active,0,LEO,PRC,China,Unknown,Unknown,Unknown,1 60386U 24140H   25222.57649041  .00000155  00000+0  22131-3 0  9995,2 60386  88.9847 312.0919 0016672 189.4600 170.6239 13.50961035 50583,13.50961035,0.0016672,LEO
